NORAD_CAT_ID,OBJECT_NAME,OBJECT_TYPE,EPOCH,MEAN_MOTION,ECCENTRICITY,INCLINATION,RA_OF_ASC_NODE,ARG_OF_PERICENTER,MEAN_ANOMALY,BSTAR,MEAN_MOTION_DOT,MEAN_MOTION_DDOT,TLE_LINE0,TLE_LINE1,TLE_LINE2,SEMIMAJOR_AXIS,PERIOD,APOGEE,PERIGEE,DECAYED
54780.0,STARLINK-5449,PAYLOAD,2023-04-01 14:33:25,15.07874451,0.0003277,53.2186,166.1414,158.7491,201.3638,-0.0067317,-0.00103154,0.0,0 STARLINK-5449,1 54780U 22175Y   23091.60654422 -.00103154  00000-0 -67317-2 0  9997,2 54780  53.2186 166.1414 0003277 158.7491 201.3638 15.07874451 18136,6920.833,95.499,544.966,540.43,0.0
54780.0,STARLINK-5449,PAYLOAD,2023-04-01 16:08:53,15.07854866,0.0001244,53.218,165.845,88.7623,271.3511,-0.0067565,-0.00103457,0.0,0 STARLINK-5449,1 54780U 22175Y   23091.67284336 -.00103457  00000-0 -67565-2 0  9998,2 54780  53.2180 165.8450 0001244  88.7623 271.3511 15.07854866 15982,6920.893,95.5,543.619,541.897,0.0
54780.0,STARLINK-5449,PAYLOAD,2023-04-01 20:55:16,15.07814163,0.0001326,53.2167,164.9598,99.564,260.5502,-0.0066616,-0.00101917,0.0,0 STARLINK-5449,1 54780U 22175Y   23091.87171740 -.00101917  00000-0 -66616-2 0  9999,2 54780  53.2167 164.9598 0001326  99.5640 260.5502 15.07814163 18170,6921.018,95.502,543.8,541.965,0.0
54780.0,STARLINK-5449,PAYLOAD,2023-04-01 22:30:43,15.07803792,0.0001184,53.2168,164.6644,89.1454,270.9674,-0.0066206,-0.00101271,0.0,0 STARLINK-5449,1 54780U 22175Y   23091.93800678 -.00101271  00000-0 -66206-2 0  9993,2 54780  53.2168 164.6644 0001184  89.1454 270.9674 15.07803792 16023,6921.049,95.503,543.734,542.095,0.0
54780.0,STARLINK-5449,PAYLOAD,2023-04-02 09:38:59,15.07586812,0.0001368,53.2168,162.5857,65.5874,294.526,-0.0044741,-0.00068441,0.0,0 STARLINK-5449,1 54780U 22175Y   23092.40207719 -.00068441  00000-0 -44741-2 0  9994,2 54780  53.2168 162.5857 0001368  65.5874 294.5260 15.07586812 16095,6921.714,95.517,544.525,542.632,0.0
54780.0,STARLINK-5449,PAYLOAD,2023-04-02 11:14:27,15.07582459,0.0001334,53.2171,162.2856,103.1179,256.9962,-0.0044122,-0.00067499,0.0,0 STARLINK-5449,1 54780U 22175Y   23092.46837167 -.00067499  00000-0 -44122-2 0  9991,2 54780  53.2171 162.2856 0001334 103.1179 256.9962 15.07582459 18260,6921.727,95.517,544.515,542.669,0.0
54780.0,STARLINK-5449,PAYLOAD,2023-04-02 16:00:51,15.07564332,0.0001506,53.2179,161.3918,105.2762,254.8396,-0.0042028,-0.00064307,0.0,0 STARLINK-5449,1 54780U 22175Y   23092.66726480 -.00064307  00000-0 -42028-2 0  9996,2 54780  53.2179 161.3918 0001506 105.2762 254.8396 15.07564332 18290,6921.782,95.518,544.69,542.605,0.0
54780.0,STARLINK-5449,PAYLOAD,2023-04-03 06:00:00,15.07206539,0.000148,53.217,158.7837,87.9571,195.9584,0.00024131,3.392e-05,0.0,0 STARLINK-5449,1 54780U 22175Y   23093.25001157  .00003392  00000-0  24131-3 0  9990,2 54780  53.2170 158.7837 0001480  87.9571 195.9584 15.07206539 16223,6922.878,95.541,545.767,543.718,0.0
54780.0,STARLINK-5449,PAYLOAD,2023-04-03 14:00:01,15.07187139,0.0001534,53.2169,157.2927,75.3194,218.2388,0.0019348,0.00029276,0.0,0 STARLINK-5449,1 54780U 22175Y   23093.58334491  .00029276  00000-0  19348-2 0  9998,2 54780  53.2169 157.2927 0001534  75.3194 218.2388 15.07187139  1305,6922.937,95.542,545.864,543.74,0.0
54780.0,STARLINK-5449,PAYLOAD,2023-04-03 22:00:00,15.07208096,0.0001446,53.2169,155.7986,80.2273,222.9579,0.00087821,0.00013111,0.0,0 STARLINK-5449,1 54780U 22175Y   23093.91667824  .00013111  00000-0  87821-3 0  9997,2 54780  53.2169 155.7986 0001446  80.2273 222.9579 15.07208096  1308,6922.873,95.541,545.739,543.737,0.0
54780.0,STARLINK-5449,PAYLOAD,2023-04-04 14:00:01,15.07192183,0.0001351,53.2166,152.8149,78.2374,244.256,-0.00024336,-3.984e-05,0.0,0 STARLINK-5449,1 54780U 22175Y   23094.58334491 -.00003984  00000-0 -24336-3 0  9993,2 54780  53.2166 152.8149 0001351  78.2374 244.2560 15.07192183 16423,6922.922,95.542,545.722,543.851,0.0
54780.0,STARLINK-5449,PAYLOAD,2023-04-04 16:00:00,15.07178598,0.0001241,53.2162,152.4415,78.9541,335.9477,0.0014453,0.00021769,0.0,0 STARLINK-5449,1 54780U 22175Y   23094.66667824  .00021769  00000-0  14453-2 0  9998,2 54780  53.2162 152.4415 0001241  78.9541 335.9477 15.07178598  1302,6922.963,95.543,545.687,543.969,0.0
54780.0,STARLINK-5449,PAYLOAD,2023-04-04 22:00:00,15.07183572,0.0001225,53.2164,151.3208,88.2258,243.8841,0.0012268,0.00018429,0.0,0 STARLINK-5449,1 54780U 22175Y   23094.91667824  .00018429  00000-0  12268-2 0  9997,2 54780  53.2164 151.3208 0001225  88.2258 243.8841 15.07183572  1303,6922.948,95.542,545.661,543.965,0.0
54780.0,STARLINK-5449,PAYLOAD,2023-04-05 12:26:51,15.07198737,0.0001478,53.2175,148.6237,87.3416,272.7745,-5.3911e-06,-3.65e-06,0.0,0 STARLINK-5449,1 54780U 22175Y   23095.51865368 -.00000365  00000-0 -53911-5 0  9992,2 54780  53.2175 148.6237 0001478  87.3416 272.7745 15.07198737 18729,6922.902,95.541,545.79,543.743,0.0
54780.0,STARLINK-5449,PAYLOAD,2023-04-05 20:24:18,15.0720258,0.0001495,53.2172,147.1396,85.255,274.8612,-3.2157e-06,-3.32e-06,0.0,0 STARLINK-5449,1 54780U 22175Y   23095.85021156 -.00000332  00000-0 -32157-5 0  9991,2 54780  53.2172 147.1396 0001495  85.2550 274.8612 15.07202580 18774,6922.89,95.541,545.79,543.72,0.0
54780.0,STARLINK-5449,PAYLOAD,2023-04-06 02:46:15,15.07204391,0.000138,53.2173,145.9516,83.0896,277.0252,1.6062e-05,-3.9e-07,0.0,0 STARLINK-5449,1 54780U 22175Y   23096.11545709 -.00000039  00000-0  16062-4 0  9995,2 54780  53.2173 145.9516 0001380  83.0896 277.0252 15.07204391 16659,6922.884,95.541,545.705,543.794,0.0
54780.0,STARLINK-5449,PAYLOAD,2023-04-06 10:43:41,15.07216015,0.0001425,53.2171,144.4679,85.6237,274.4917,-2.4305e-05,-6.53e-06,0.0,0 STARLINK-5449,1 54780U 22175Y   23096.44701006 -.00000653  00000-0 -24305-4 0  9997,2 54780  53.2171 144.4679 0001425  85.6237 274.4917 15.07216015 16709,6922.849,95.54,545.7,543.727,0.0
54780.0,STARLINK-5449,PAYLOAD,2023-04-06 12:19:10,15.07217996,0.0001447,53.2172,144.1708,87.7195,272.3962,-6.126e-06,-3.77e-06,0.0,0 STARLINK-5449,1 54780U 22175Y   23096.51331959 -.00000377  00000-0 -61260-5 0  9996,2 54780  53.2172 144.1708 0001447  87.7195 272.3962 15.07217996 18876,6922.843,95.54,545.709,543.706,0.0
54780.0,STARLINK-5449,PAYLOAD,2023-04-06 15:30:08,15.0725117,0.0002101,53.217,143.5764,132.7941,227.3227,-0.00044308,-7.03e-05,0.0,0 STARLINK-5449,1 54780U 22175Y   23096.64593356 -.00007030  00000-0 -44308-3 0  9996,2 54780  53.2170 143.5764 0002101 132.7941 227.3227 15.07251170 16736,6922.741,95.538,546.061,543.152,0.0
54780.0,STARLINK-5449,PAYLOAD,2023-04-06 20:16:38,15.07203774,8.25e-05,53.2179,142.687,61.2999,298.8075,-0.00016044,-2.724e-05,0.0,0 STARLINK-5449,1 54780U 22175Y   23096.84488778 -.00002724  00000-0 -16044-3 0  9990,2 54780  53.2179 142.6870 0000825  61.2999 298.8075 15.07203774 18927,6922.886,95.541,545.322,544.18,0.0
54780.0,STARLINK-5449,PAYLOAD,2023-04-07 10:36:02,15.07201553,0.0001355,53.2169,140.0138,81.6007,278.5138,2.4543e-05,9e-07,0.0,0 STARLINK-5449,1 54780U 22175Y   23097.44169604  .00000090  00000-0  24543-4 0  9997,2 54780  53.2169 140.0138 0001355  81.6007 278.5138 15.07201553 19019,6922.893,95.541,545.696,543.82,0.0
54780.0,STARLINK-5449,PAYLOAD,2023-04-07 15:22:30,15.0720598,0.0001347,53.2166,139.1228,80.8558,279.2586,5.531e-05,5.59e-06,0.0,0 STARLINK-5449,1 54780U 22175Y   23097.64062777  .00000559  00000-0  55310-4 0  9998,2 54780  53.2166 139.1228 0001347  80.8558 279.2586 15.07205980 16883,6922.879,95.541,545.677,543.812,0.0
54780.0,STARLINK-5449,PAYLOAD,2023-04-08 08:52:52,15.07212272,0.0001443,53.2177,135.8552,81.6861,278.4294,-2.0483e-05,-5.95e-06,0.0,0 STARLINK-5449,1 54780U 22175Y   23098.37005619 -.00000595  00000-0 -20483-4 0  9996,2 54780  53.2177 135.8552 0001443  81.6861 278.4294 15.07212272 19153,6922.86,95.541,545.724,543.726,0.0
54780.0,STARLINK-5449,PAYLOAD,2023-04-08 13:39:20,15.07216294,0.0001433,53.2177,134.9643,84.4709,275.6446,1.248e-05,-9.3e-07,0.0,0 STARLINK-5449,1 54780U 22175Y   23098.56898688 -.00000093  00000-0  12480-4 0  9993,2 54780  53.2177 134.9643 0001433  84.4709 275.6446 15.07216294 17025,6922.848,95.54,545.705,543.721,0.0
54780.0,STARLINK-5449,PAYLOAD,2023-04-09 07:09:44,15.07200962,0.0001444,53.2173,131.6991,82.4142,277.7014,7.977e-06,-1.62e-06,0.0,0 STARLINK-5449,1 54780U 22175Y   23099.29842711 -.00000162  00000-0  79770-5 0  9993,2 54780  53.2173 131.6991 0001444  82.4142 277.7014 15.07200962 17133,6922.895,95.541,545.759,543.76,0.0
54780.0,STARLINK-5449,PAYLOAD,2023-04-09 11:56:11,15.07206167,0.0001393,53.2174,130.8079,83.9328,276.1822,-2.0213e-05,-5.91e-06,0.0,0 STARLINK-5449,1 54780U 22175Y   23099.49736037 -.00000591  00000-0 -20213-4 0  9992,2 54780  53.2174 130.8079 0001393  83.9328 276.1822 15.07206167 19323,6922.879,95.541,545.708,543.78,0.0
54780.0,STARLINK-5449,PAYLOAD,2023-04-09 13:31:41,15.07207293,0.0001394,53.2175,130.5111,83.4,276.715,-1.0028e-05,-4.36e-06,0.0,0 STARLINK-5449,1 54780U 22175Y   23099.56367109 -.00000436  00000-0 -10028-4 0  9991,2 54780  53.2175 130.5111 0001394  83.4000 276.7150 15.07207293 19333,6922.875,95.541,545.705,543.775,0.0
54780.0,STARLINK-5449,PAYLOAD,2023-04-10 13:24:01,15.07189326,0.00014,53.2175,126.0561,115.0691,245.0446,0.00023442,3.285e-05,0.0,0 STARLINK-5449,1 54780U 22175Y   23100.55835096  .00003285  00000-0  23442-3 0  9994,2 54780  53.2175 126.0561 0001400 115.0691 245.0446 15.07189326 19487,6922.93,95.542,545.765,543.826,0.0
54780.0,STARLINK-5449,PAYLOAD,2023-04-10 18:10:29,15.07204484,0.0001491,53.2184,125.165,113.5245,246.5904,-8.9048e-05,-1.639e-05,0.0,0 STARLINK-5449,1 54780U 22175Y   23100.75728817 -.00001639  00000-0 -89048-4 0  9996,2 54780  53.2184 125.1650 0001491 113.5245 246.5904 15.07204484 17356,6922.884,95.541,545.781,543.717,0.0
54780.0,STARLINK-5449,PAYLOAD,2023-04-11 13:16:21,15.07207783,0.0001454,53.2171,121.6026,103.662,256.4533,2.0789e-05,3.3e-07,0.0,0 STARLINK-5449,1 54780U 22175Y   23101.55302647  .00000033  00000-0  20789-4 0  9996,2 54780  53.2171 121.6026 0001454 103.6620 256.4533 15.07207783 19632,6922.874,95.541,545.746,543.732,0.0
